[{"OBJECT_NAME":"COSMOS 2361","OBJECT_ID":"1998-076A","EPOCH":"2026-03-05T16:06:30.636288","MEAN_MOTION":13.73227048,"ECCENTRICITY":0.0032276,"INCLINATION":82.931,"RA_OF_ASC_NODE":282.7629,"ARG_OF_PERICENTER":37.0223,"MEAN_ANOMALY":22.9172,"EPHEMERIS_TYPE":0,"CLASSIFICATION_TYPE":"U","NORAD_CAT_ID":25590,"ELEMENT_SET_NO":999,"REV_AT_EPOCH":36249,"BSTAR":6.3172e-5,"MEAN_MOTION_DOT":7.4e-7,"MEAN_MOTION_DDOT":0},{"OBJECT_NAME":"COSMOS 2378","OBJECT_ID":"2001-023A","EPOCH":"2026-03-05T16:08:13.712352","MEAN_MOTION":13.74150688,"ECCENTRICITY":0.0032555,"INCLINATION":82.9257,"RA_OF_ASC_NODE":298.247,"ARG_OF_PERICENTER":338.3618,"MEAN_ANOMALY":75.5918,"EPHEMERIS_TYPE":0,"CLASSIFICATION_TYPE":"U","NORAD_CAT_ID":26818,"ELEMENT_SET_NO":999,"REV_AT_EPOCH":24062,"BSTAR":6.7164e-5,"MEAN_MOTION_DOT":7.8e-7,"MEAN_MOTION_DDOT":0},{"OBJECT_NAME":"COSMOS 2389","OBJECT_ID":"2002-026A","EPOCH":"2026-03-05T13:42:01.502208","MEAN_MOTION":13.75164049,"ECCENTRICITY":0.0046189,"INCLINATION":82.9467,"RA_OF_ASC_NODE":245.6648,"ARG_OF_PERICENTER":187.2782,"MEAN_ANOMALY":233.3009,"EPHEMERIS_TYPE":0,"CLASSIFICATION_TYPE":"U","NORAD_CAT_ID":27436,"ELEMENT_SET_NO":999,"REV_AT_EPOCH":19287,"BSTAR":5.114e-5,"MEAN_MOTION_DOT":6.5e-7,"MEAN_MOTION_DDOT":0},{"OBJECT_NAME":"COSMOS 2398","OBJECT_ID":"2003-023A","EPOCH":"2026-03-05T15:56:50.196768","MEAN_MOTION":13.72394921,"ECCENTRICITY":0.0030289,"INCLINATION":82.9486,"RA_OF_ASC_NODE":211.5837,"ARG_OF_PERICENTER":241.2931,"MEAN_ANOMALY":129.6348,"EPHEMERIS_TYPE":0,"CLASSIFICATION_TYPE":"U","NORAD_CAT_ID":27818,"ELEMENT_SET_NO":999,"REV_AT_EPOCH":13954,"BSTAR":4.9266e-5,"MEAN_MOTION_DOT":6.0e-7,"MEAN_MOTION_DDOT":0},{"OBJECT_NAME":"COSMOS 2407","OBJECT_ID":"2004-028A","EPOCH":"2026-03-05T16:47:26.376576","MEAN_MOTION":13.76324523,"ECCENTRICITY":0.0039404,"INCLINATION":82.9637,"RA_OF_ASC_NODE":151.4793,"ARG_OF_PERICENTER":179.8664,"MEAN_ANOMALY":291.9419,"EPHEMERIS_TYPE":0,"CLASSIFICATION_TYPE":"U","NORAD_CAT_ID":28380,"ELEMENT_SET_NO":999,"REV_AT_EPOCH":8564,"BSTAR":8.2806e-5,"MEAN_MOTION_DOT":9.7e-7,"MEAN_MOTION_DDOT":0},{"OBJECT_NAME":"COSMOS 2414","OBJECT_ID":"2005-002A","EPOCH":"2026-03-05T15:40:25.961664","MEAN_MOTION":13.87914941,"ECCENTRICITY":0.0038697,"INCLINATION":82.9489,"RA_OF_ASC_NODE":121.9718,"ARG_OF_PERICENTER":264.315,"MEAN_ANOMALY":95.36,"EPHEMERIS_TYPE":0,"CLASSIFICATION_TYPE":"U","NORAD_CAT_ID":28521,"ELEMENT_SET_NO":999,"REV_AT_EPOCH":6945,"BSTAR":9.0253e-5,"MEAN_MOTION_DOT":1.23e-6,"MEAN_MOTION_DDOT":0},{"OBJECT_NAME":"COSMOS 2429","OBJECT_ID":"2007-038A","EPOCH":"2026-03-05T16:00:29.631168","MEAN_MOTION":13.75157852,"ECCENTRICITY":0.003871,"INCLINATION":82.9773,"RA_OF_ASC_NODE":282.1878,"ARG_OF_PERICENTER":162.7023,"MEAN_ANOMALY":197.5462,"EPHEMERIS_TYPE":0,"CLASSIFICATION_TYPE":"U","NORAD_CAT_ID":32052,"ELEMENT_SET_NO":999,"REV_AT_EPOCH":92742,"BSTAR":6.0207e-5,"MEAN_MOTION_DOT":7.3e-7,"MEAN_MOTION_DDOT":0},{"OBJECT_NAME":"COSMOS 2454","OBJECT_ID":"2009-039A","EPOCH":"2026-03-05T14:48:51.408288","MEAN_MOTION":13.89940741,"ECCENTRICITY":0.0018914,"INCLINATION":82.9532,"RA_OF_ASC_NODE":105.8216,"ARG_OF_PERICENTER":191.2028,"MEAN_ANOMALY":283.4855,"EPHEMERIS_TYPE":0,"CLASSIFICATION_TYPE":"U","NORAD_CAT_ID":35635,"ELEMENT_SET_NO":999,"REV_AT_EPOCH":84301,"BSTAR":6.399e-5,"MEAN_MOTION_DOT":9.5e-7,"MEAN_MOTION_DDOT":0},{"OBJECT_NAME":"COSMOS 2463","OBJECT_ID":"2010-017A","EPOCH":"2026-03-05T16:07:48.113760","MEAN_MOTION":13.71657516,"ECCENTRICITY":0.0037346,"INCLINATION":82.9636,"RA_OF_ASC_NODE":325.7824,"ARG_OF_PERICENTER":58.351,"MEAN_ANOMALY":319.8456,"EPHEMERIS_TYPE":0,"CLASSIFICATION_TYPE":"U","NORAD_CAT_ID":36519,"ELEMENT_SET_NO":999,"REV_AT_EPOCH":79374,"BSTAR":7.111e-5,"MEAN_MOTION_DOT":8.0e-7,"MEAN_MOTION_DDOT":0}]
